[
  {
    "COMMENT": "GENERATED VIA SPACETRACK.ORG API",
    "ORIGINATOR": "18 SPCS",
    "NORAD_CAT_ID": "27386",
    "OBJECT_NAME": "ENVISAT",
    "OBJECT_TYPE": "PAYLOAD",
    "CLASSIFICATION_TYPE": "U",
    "INTLDES": "02009A",
    "EPOCH": "2023-05-29 15:53:48",
    "EPOCH_MICROSECONDS": "266016",
    "MEAN_MOTION": "14.3834916",
    "ECCENTRICITY": "0.0001287",
    "INCLINATION": "98.2296",
    "RA_OF_ASC_NODE": "120.427",
    "ARG_OF_PERICENTER": "89.5859",
    "MEAN_ANOMALY": "83.4721",
    "EPHEMERIS_TYPE": "0",
    "ELEMENT_SET_NO": "999",
    "REV_AT_EPOCH": "11329",
    "BSTAR": "0.000083212",
    "MEAN_MOTION_DOT": "0.00000212",
    "MEAN_MOTION_DDOT": "0",
    "FILE": "3920159",
    "TLE_LINE0": "0 ENVISAT",
    "TLE_LINE1": "1 27386U 02009A   23149.66236419  .00000212  00000-0  83212-4 0  9998",
    "TLE_LINE2": "2 27386  98.2296 120.4270 0001287  89.5859  83.4721 14.38349160113292",
    "OBJECT_ID": "2002-009A",
    "OBJECT_NUMBER": "27386",
    "SEMIMAJOR_AXIS": "7142.095",
    "PERIOD": "100.115",
    "APOGEE": "764.879",
    "PERIGEE": "763.041",
    "DECAYED": "0"
  },
  {
    "COMMENT": "GENERATED VIA SPACETRACK.ORG API",
    "ORIGINATOR": "18 SPCS",
    "NORAD_CAT_ID": "27386",
    "OBJECT_NAME": "ENVISAT",
    "OBJECT_TYPE": "PAYLOAD",
    "CLASSIFICATION_TYPE": "U",
    "INTLDES": "02009A",
    "EPOCH": "2023-05-29 21:53:07",
    "EPOCH_MICROSECONDS": "526688",
    "MEAN_MOTION": "14.38349317",
    "ECCENTRICITY": "0.0001282",
    "INCLINATION": "98.2296",
    "RA_OF_ASC_NODE": "120.6663",
    "ARG_OF_PERICENTER": "89.5814",
    "MEAN_ANOMALY": "294.7988",
    "EPHEMERIS_TYPE": "0",
    "ELEMENT_SET_NO": "999",
    "REV_AT_EPOCH": "11326",
    "BSTAR": "0.000083119",
    "MEAN_MOTION_DOT": "0.00000212",
    "MEAN_MOTION_DDOT": "0",
    "FILE": "3920354",
    "TLE_LINE0": "0 ENVISAT",
    "TLE_LINE1": "1 27386U 02009A   23149.91189267  .00000212  00000-0  83119-4 0  9990",
    "TLE_LINE2": "2 27386  98.2296 120.6663 0001282  89.5814 294.7988 14.38349317113269",
    "OBJECT_ID": "2002-009A",
    "OBJECT_NUMBER": "27386",
    "SEMIMAJOR_AXIS": "7142.095",
    "PERIOD": "100.115",
    "APOGEE": "764.875",
    "PERIGEE": "763.044",
    "DECAYED": "0"
  },
  {
    "COMMENT": "GENERATED VIA SPACETRACK.ORG API",
    "ORIGINATOR": "18 SPCS",
    "NORAD_CAT_ID": "27386",
    "OBJECT_NAME": "ENVISAT",
    "OBJECT_TYPE": "PAYLOAD",
    "CLASSIFICATION_TYPE": "U",
    "INTLDES": "02009A",
    "EPOCH": "2023-05-30 04:30:11",
    "EPOCH_MICROSECONDS": "671776",
    "MEAN_MOTION": "14.38349405",
    "ECCENTRICITY": "0.0001285",
    "INCLINATION": "98.2297",
    "RA_OF_ASC_NODE": "120.9306",
    "ARG_OF_PERICENTER": "89.5155",
    "MEAN_ANOMALY": "281.8451",
    "EPHEMERIS_TYPE": "0",
    "ELEMENT_SET_NO": "999",
    "REV_AT_EPOCH": "11337",
    "BSTAR": "0.000080508",
    "MEAN_MOTION_DOT": "0.00000204",
    "MEAN_MOTION_DDOT": "0",
    "FILE": "3920610",
    "TLE_LINE0": "0 ENVISAT",
    "TLE_LINE1": "1 27386U 02009A   23150.18763509  .00000204  00000-0  80508-4 0  9998",
    "TLE_LINE2": "2 27386  98.2297 120.9306 0001285  89.5155 281.8451 14.38349405113370",
    "OBJECT_ID": "2002-009A",
    "OBJECT_NUMBER": "27386",
    "SEMIMAJOR_AXIS": "7142.094",
    "PERIOD": "100.115",
    "APOGEE": "764.877",
    "PERIGEE": "763.041",
    "DECAYED": "0"
  },
  {
    "COMMENT": "GENERATED VIA SPACETRACK.ORG API",
    "ORIGINATOR": "18 SPCS",
    "NORAD_CAT_ID": "27386",
    "OBJECT_NAME": "ENVISAT",
    "OBJECT_TYPE": "PAYLOAD",
    "CLASSIFICATION_TYPE": "U",
    "INTLDES": "02009A",
    "EPOCH": "2023-05-30 10:09:11",
    "EPOCH_MICROSECONDS": "506176",
    "MEAN_MOTION": "14.38349506",
    "ECCENTRICITY": "0.000128",
    "INCLINATION": "98.2297",
    "RA_OF_ASC_NODE": "121.1563",
    "ARG_OF_PERICENTER": "89.2763",
    "MEAN_ANOMALY": "60.3672",
    "EPHEMERIS_TYPE": "0",
    "ELEMENT_SET_NO": "999",
    "REV_AT_EPOCH": "11340",
    "BSTAR": "0.000078456",
    "MEAN_MOTION_DOT": "0.00000197",
    "MEAN_MOTION_DDOT": "0",
    "FILE": "3920819",
    "TLE_LINE0": "0 ENVISAT",
    "TLE_LINE1": "1 27386U 02009A   23150.42304984  .00000197  00000-0  78456-4 0  9993",
    "TLE_LINE2": "2 27386  98.2297 121.1563 0001280  89.2763  60.3672 14.38349506113406",
    "OBJECT_ID": "2002-009A",
    "OBJECT_NUMBER": "27386",
    "SEMIMAJOR_AXIS": "7142.094",
    "PERIOD": "100.115",
    "APOGEE": "764.873",
    "PERIGEE": "763.045",
    "DECAYED": "0"
  },
  {
    "COMMENT": "GENERATED VIA SPACETRACK.ORG API",
    "ORIGINATOR": "18 SPCS",
    "NORAD_CAT_ID": "27386",
    "OBJECT_NAME": "ENVISAT",
    "OBJECT_TYPE": "PAYLOAD",
    "CLASSIFICATION_TYPE": "U",
    "INTLDES": "02009A",
    "EPOCH": "2023-05-30 11:38:17",
    "EPOCH_MICROSECONDS": "544192",
    "MEAN_MOTION": "14.38349569",
    "ECCENTRICITY": "0.000128",
    "INCLINATION": "98.2296",
    "RA_OF_ASC_NODE": "121.2156",
    "ARG_OF_PERICENTER": "89.3382",
    "MEAN_ANOMALY": "20.5138",
    "EPHEMERIS_TYPE": "0",
    "ELEMENT_SET_NO": "999",
    "REV_AT_EPOCH": "11334",
    "BSTAR": "0.000080395",
    "MEAN_MOTION_DOT": "0.00000203",
    "MEAN_MOTION_DDOT": "0",
    "FILE": "3920920",
    "TLE_LINE0": "0 ENVISAT",
    "TLE_LINE1": "1 27386U 02009A   23150.48492528  .00000203  00000-0  80395-4 0  9994",
    "TLE_LINE2": "2 27386  98.2296 121.2156 0001280  89.3382  20.5138 14.38349569113349",
    "OBJECT_ID": "2002-009A",
    "OBJECT_NUMBER": "27386",
    "SEMIMAJOR_AXIS": "7142.094",
    "PERIOD": "100.115",
    "APOGEE": "764.873",
    "PERIGEE": "763.045",
    "DECAYED": "0"
  },
  {
    "COMMENT": "GENERATED VIA SPACETRACK.ORG API",
    "ORIGINATOR": "18 SPCS",
    "NORAD_CAT_ID": "27386",
    "OBJECT_NAME": "ENVISAT",
    "OBJECT_TYPE": "PAYLOAD",
    "CLASSIFICATION_TYPE": "U",
    "INTLDES": "02009A",
    "EPOCH": "2023-05-30 21:23:44",
    "EPOCH_MICROSECONDS": "882016",
    "MEAN_MOTION": "14.38349742",
    "ECCENTRICITY": "0.0001276",
    "INCLINATION": "98.2296",
    "RA_OF_ASC_NODE": "121.6054",
    "ARG_OF_PERICENTER": "89.3023",
    "MEAN_ANOMALY": "324.5513",
    "EPHEMERIS_TYPE": "0",
    "ELEMENT_SET_NO": "999",
    "REV_AT_EPOCH": "11347",
    "BSTAR": "0.000078104",
    "MEAN_MOTION_DOT": "0.00000196",
    "MEAN_MOTION_DDOT": "0",
    "FILE": "3921102",
    "TLE_LINE0": "0 ENVISAT",
    "TLE_LINE1": "1 27386U 02009A   23150.89149169  .00000196  00000-0  78104-4 0  9995",
    "TLE_LINE2": "2 27386  98.2296 121.6054 0001276  89.3023 324.5513 14.38349742113478",
    "OBJECT_ID": "2002-009A",
    "OBJECT_NUMBER": "27386",
    "SEMIMAJOR_AXIS": "7142.093",
    "PERIOD": "100.115",
    "APOGEE": "764.869",
    "PERIGEE": "763.047",
    "DECAYED": "0"
  },
  {
    "COMMENT": "GENERATED VIA SPACETRACK.ORG API",
    "ORIGINATOR": "18 SPCS",
    "NORAD_CAT_ID": "27386",
    "OBJECT_NAME": "ENVISAT",
    "OBJECT_TYPE": "PAYLOAD",
    "CLASSIFICATION_TYPE": "U",
    "INTLDES": "02009A",
    "EPOCH": "2023-05-30 23:07:45",
    "EPOCH_MICROSECONDS": "632640",
    "MEAN_MOTION": "14.38349806",
    "ECCENTRICITY": "0.0001275",
    "INCLINATION": "98.2296",
    "RA_OF_ASC_NODE": "121.6747",
    "ARG_OF_PERICENTER": "89.2228",
    "MEAN_ANOMALY": "338.4296",
    "EPHEMERIS_TYPE": "0",
    "ELEMENT_SET_NO": "999",
    "REV_AT_EPOCH": "11341",
    "BSTAR": "0.000079126",
    "MEAN_MOTION_DOT": "0.000002",
    "MEAN_MOTION_DDOT": "0",
    "FILE": "3921192",
    "TLE_LINE0": "0 ENVISAT",
    "TLE_LINE1": "1 27386U 02009A   23150.96372260  .00000200  00000-0  79126-4 0  9994",
    "TLE_LINE2": "2 27386  98.2296 121.6747 0001275  89.2228 338.4296 14.38349806113419",
    "OBJECT_ID": "2002-009A",
    "OBJECT_NUMBER": "27386",
    "SEMIMAJOR_AXIS": "7142.093",
    "PERIOD": "100.115",
    "APOGEE": "764.869",
    "PERIGEE": "763.047",
    "DECAYED": "0"
  },
  {
    "COMMENT": "GENERATED VIA SPACETRACK.ORG API",
    "ORIGINATOR": "18 SPCS",
    "NORAD_CAT_ID": "27386",
    "OBJECT_NAME": "ENVISAT",
    "OBJECT_TYPE": "PAYLOAD",
    "CLASSIFICATION_TYPE": "U",
    "INTLDES": "02009A",
    "EPOCH": "2023-05-31 03:52:31",
    "EPOCH_MICROSECONDS": "39104",
    "MEAN_MOTION": "14.3834996",
    "ECCENTRICITY": "0.0001274",
    "INCLINATION": "98.2297",
    "RA_OF_ASC_NODE": "121.8643",
    "ARG_OF_PERICENTER": "89.173",
    "MEAN_ANOMALY": "281.834",
    "EPHEMERIS_TYPE": "0",
    "ELEMENT_SET_NO": "999",
    "REV_AT_EPOCH": "11351",
    "BSTAR": "0.000083526",
    "MEAN_MOTION_DOT": "0.00000213",
    "MEAN_MOTION_DDOT": "0",
    "FILE": "3921290",
    "TLE_LINE0": "0 ENVISAT",
    "TLE_LINE1": "1 27386U 02009A   23151.16147036  .00000213  00000-0  83526-4 0  9991",
    "TLE_LINE2": "2 27386  98.2297 121.8643 0001274  89.1730 281.8340 14.38349960113516",
    "OBJECT_ID": "2002-009A",
    "OBJECT_NUMBER": "27386",
    "SEMIMAJOR_AXIS": "7142.092",
    "PERIOD": "100.115",
    "APOGEE": "764.867",
    "PERIGEE": "763.047",
    "DECAYED": "0"
  },
  {
    "COMMENT": "GENERATED VIA SPACETRACK.ORG API",
    "ORIGINATOR": "18 SPCS",
    "NORAD_CAT_ID": "27386",
    "OBJECT_NAME": "ENVISAT",
    "OBJECT_TYPE": "PAYLOAD",
    "CLASSIFICATION_TYPE": "U",
    "INTLDES": "02009A",
    "EPOCH": "2023-05-31 11:00:49",
    "EPOCH_MICROSECONDS": "717728",
    "MEAN_MOTION": "14.38350139",
    "ECCENTRICITY": "0.0001279",
    "INCLINATION": "98.2297",
    "RA_OF_ASC_NODE": "122.1495",
    "ARG_OF_PERICENTER": "89.3045",
    "MEAN_ANOMALY": "20.9617",
    "EPHEMERIS_TYPE": "0",
    "ELEMENT_SET_NO": "999",
    "REV_AT_EPOCH": "11355",
    "BSTAR": "0.000084244",
    "MEAN_MOTION_DOT": "0.00000215",
    "MEAN_MOTION_DDOT": "0",
    "FILE": "3921588",
    "TLE_LINE0": "0 ENVISAT",
    "TLE_LINE1": "1 27386U 02009A   23151.45890877  .00000215  00000-0  84244-4 0  9991",
    "TLE_LINE2": "2 27386  98.2297 122.1495 0001279  89.3045  20.9617 14.38350139113554",
    "OBJECT_ID": "2002-009A",
    "OBJECT_NUMBER": "27386",
    "SEMIMAJOR_AXIS": "7142.092",
    "PERIOD": "100.115",
    "APOGEE": "764.870",
    "PERIGEE": "763.043",
    "DECAYED": "0"
  }
]